ONEWEB-0674             
1 55833U 23029AP  24249.97198992 -.00000114  00000+0 -34190-3 0  9992
2 55833  87.8935  58.8445 0001167  75.6402 284.4857 13.14504997 74809
ONEWEB-0720             
1 55835U 23029AR  24250.05595071  .00000184  00000+0  42610-3 0  9995
2 55835  87.9098  74.1064 0001467 106.5338 253.5956 13.19728151 73918
ONEWEB-0537             
1 56046U 23043A   24249.80057724  .00000007  00000+0 -14143-4 0  9991
2 56046  87.9170 358.0768 0002119  99.0076 261.1295 13.16595995 74422
ONEWEB-0538             
1 56047U 23043B   24249.87022981  .00002368  00000+0  61601-2 0  9996
2 56047  87.9161 358.0834 0002391 107.7734 252.3657 13.16583369 73534
ONEWEB-0546             
1 56048U 23043C   24249.85758238  .00000089  00000+0  19987-3 0  9995
2 56048  87.9175 358.0504 0002434  85.5280 274.6129 13.16594195 73520
ONEWEB-0547             
1 56049U 23043D   24249.84996135  .00000141  00000+0  30934-3 0  9999
2 56049  87.9353  13.2624 0001933 104.7078 255.4271 13.21824614 72447
ONEWEB-0548             
1 56050U 23043E   24249.80689485  .00000086  00000+0  19220-3 0  9997
2 56050  87.9171 358.1032 0001249  89.3625 270.7649 13.16595517 73516
